[{"OBJECT_NAME":"STARLINK-4512","OBJECT_ID":"2022-097L","EPOCH":"2025-10-10T21:51:04.855104","MEAN_MOTION":15.08844974,"ECCENTRICITY":0.0001426,"INCLINATION":53.2156,"RA_OF_ASC_NODE":76.5042,"ARG_OF_PERICENTER":90.9343,"MEAN_ANOMALY":269.1812,"EPHEMERIS_TYPE":0,"CLASSIFICATION_TYPE":"U","NORAD_CAT_ID":53398,"ELEMENT_SET_NO":999,"REV_AT_EPOCH":17590,"BSTAR":-1.7521e-5,"MEAN_MOTION_DOT":-5.67e-6,"MEAN_MOTION_DDOT":0},{"OBJECT_NAME":"STARLINK-4528","OBJECT_ID":"2022-097M","EPOCH":"2025-10-11T02:53:07.581696","MEAN_MOTION":15.08833471,"ECCENTRICITY":0.00012776,"INCLINATION":53.2159,"RA_OF_ASC_NODE":75.5615,"ARG_OF_PERICENTER":93.14,"MEAN_ANOMALY":266.9738,"EPHEMERIS_TYPE":0,"CLASSIFICATION_TYPE":"U","NORAD_CAT_ID":53399,"ELEMENT_SET_NO":999,"REV_AT_EPOCH":17593,"BSTAR":4.2675571e-5,"MEAN_MOTION_DOT":3.91e-6,"MEAN_MOTION_DDOT":0},{"OBJECT_NAME":"STARLINK-4520","OBJECT_ID":"2022-097N","EPOCH":"2025-10-10T21:35:11.928768","MEAN_MOTION":15.08854224,"ECCENTRICITY":0.0001124,"INCLINATION":53.2151,"RA_OF_ASC_NODE":76.5525,"ARG_OF_PERICENTER":90.4287,"MEAN_ANOMALY":269.6834,"EPHEMERIS_TYPE":0,"CLASSIFICATION_TYPE":"U","NORAD_CAT_ID":53400,"ELEMENT_SET_NO":999,"REV_AT_EPOCH":17590,"BSTAR":0.00064065,"MEAN_MOTION_DOT":9.927e-5,"MEAN_MOTION_DDOT":0},{"OBJECT_NAME":"STARLINK-4525","OBJECT_ID":"2022-097P","EPOCH":"2025-10-10T21:56:21.913728","MEAN_MOTION":15.08839006,"ECCENTRICITY":0.0001291,"INCLINATION":53.2151,"RA_OF_ASC_NODE":76.4871,"ARG_OF_PERICENTER":95.3876,"MEAN_ANOMALY":264.7263,"EPHEMERIS_TYPE":0,"CLASSIFICATION_TYPE":"U","NORAD_CAT_ID":53401,"ELEMENT_SET_NO":999,"REV_AT_EPOCH":17590,"BSTAR":7.046e-5,"MEAN_MOTION_DOT":8.34e-6,"MEAN_MOTION_DDOT":0},{"OBJECT_NAME":"STARLINK-4499","OBJECT_ID":"2022-097Q","EPOCH":"2025-10-11T03:51:24.672672","MEAN_MOTION":15.08839873,"ECCENTRICITY":0.00013751,"INCLINATION":53.216,"RA_OF_ASC_NODE":75.3808,"ARG_OF_PERICENTER":88.6654,"MEAN_ANOMALY":271.4496,"EPHEMERIS_TYPE":0,"CLASSIFICATION_TYPE":"U","NORAD_CAT_ID":53402,"ELEMENT_SET_NO":999,"REV_AT_EPOCH":17594,"BSTAR":5.0905932e-5,"MEAN_MOTION_DOT":5.22e-6,"MEAN_MOTION_DDOT":0},{"OBJECT_NAME":"STARLINK-4507","OBJECT_ID":"2022-097R","EPOCH":"2025-10-11T03:21:03.787488","MEAN_MOTION":15.08839879,"ECCENTRICITY":0.0001487,"INCLINATION":53.217,"RA_OF_ASC_NODE":75.822,"ARG_OF_PERICENTER":87.023,"MEAN_ANOMALY":273.0933,"EPHEMERIS_TYPE":0,"CLASSIFICATION_TYPE":"U","NORAD_CAT_ID":53403,"ELEMENT_SET_NO":999,"REV_AT_EPOCH":17593,"BSTAR":9.9594992e-5,"MEAN_MOTION_DOT":1.297e-5,"MEAN_MOTION_DDOT":0},{"OBJECT_NAME":"STARLINK-4509","OBJECT_ID":"2022-097S","EPOCH":"2025-10-10T21:06:03.968640","MEAN_MOTION":15.08839078,"ECCENTRICITY":0.0001312,"INCLINATION":53.2174,"RA_OF_ASC_NODE":66.5768,"ARG_OF_PERICENTER":85.1385,"MEAN_ANOMALY":274.9757,"EPHEMERIS_TYPE":0,"CLASSIFICATION_TYPE":"U","NORAD_CAT_ID":53404,"ELEMENT_SET_NO":999,"REV_AT_EPOCH":17603,"BSTAR":5.6335e-5,"MEAN_MOTION_DOT":6.09e-6,"MEAN_MOTION_DDOT":0},{"OBJECT_NAME":"STARLINK-4510","OBJECT_ID":"2022-097T","EPOCH":"2025-10-11T03:46:06.686976","MEAN_MOTION":15.08845929,"ECCENTRICITY":0.00013217,"INCLINATION":53.2163,"RA_OF_ASC_NODE":75.3965,"ARG_OF_PERICENTER":86.8692,"MEAN_ANOMALY":273.2452,"EPHEMERIS_TYPE":0,"CLASSIFICATION_TYPE":"U","NORAD_CAT_ID":53405,"ELEMENT_SET_NO":999,"REV_AT_EPOCH":17594,"BSTAR":8.7329235e-5,"MEAN_MOTION_DOT":1.102e-5,"MEAN_MOTION_DDOT":0},{"OBJECT_NAME":"STARLINK-4533","OBJECT_ID":"2022-097U","EPOCH":"2025-10-11T03:10:20.934336","MEAN_MOTION":15.08841711,"ECCENTRICITY":0.00012913,"INCLINATION":53.2168,"RA_OF_ASC_NODE":65.5084,"ARG_OF_PERICENTER":81.7826,"MEAN_ANOMALY":278.3313,"EPHEMERIS_TYPE":0,"CLASSIFICATION_TYPE":"U","NORAD_CAT_ID":53406,"ELEMENT_SET_NO":999,"REV_AT_EPOCH":17607,"BSTAR":0.00011562248,"MEAN_MOTION_DOT":1.553e-5,"MEAN_MOTION_DDOT":0},{"OBJECT_NAME":"STARLINK-4537","OBJECT_ID":"2022-097V","EPOCH":"2025-10-10T12:56:36.721824","MEAN_MOTION":15.70106455,"ECCENTRICITY":0.0001988,"INCLINATION":53.2098,"RA_OF_ASC_NODE":50.5982,"ARG_OF_PERICENTER":58.5449,"MEAN_ANOMALY":301.5763,"EPHEMERIS_TYPE":0,"CLASSIFICATION_TYPE":"U","NORAD_CAT_ID":53407,"ELEMENT_SET_NO":999,"REV_AT_EPOCH":17623,"BSTAR":0.0068335158,"MEAN_MOTION_DOT":0.00925503,"MEAN_MOTION_DDOT":0},{"OBJECT_NAME":"STARLINK-4491","OBJECT_ID":"2022-097W","EPOCH":"2025-10-10T21:04:41.911104","MEAN_MOTION":15.08841635,"ECCENTRICITY":0.0001229,"INCLINATION":53.2169,"RA_OF_ASC_NODE":66.6522,"ARG_OF_PERICENTER":86.5401,"MEAN_ANOMALY":273.5732,"EPHEMERIS_TYPE":0,"CLASSIFICATION_TYPE":"U","NORAD_CAT_ID":53408,"ELEMENT_SET_NO":999,"REV_AT_EPOCH":17603,"BSTAR":7.217e-5,"MEAN_MOTION_DOT":8.61e-6,"MEAN_MOTION_DDOT":0},{"OBJECT_NAME":"STARLINK-4490","OBJECT_ID":"2022-097X","EPOCH":"2025-10-11T01:41:37.394016","MEAN_MOTION":15.08838732,"ECCENTRICITY":8.605e-5,"INCLINATION":53.2168,"RA_OF_ASC_NODE":55.9776,"ARG_OF_PERICENTER":88.0683,"MEAN_ANOMALY":272.0408,"EPHEMERIS_TYPE":0,"CLASSIFICATION_TYPE":"U","NORAD_CAT_ID":53409,"ELEMENT_SET_NO":999,"REV_AT_EPOCH":17620,"BSTAR":0.00021647205,"MEAN_MOTION_DOT":3.159e-5,"MEAN_MOTION_DDOT":0},{"OBJECT_NAME":"STARLINK-4492","OBJECT_ID":"2022-097Y","EPOCH":"2025-10-10T20:59:24.095616","MEAN_MOTION":15.08845511,"ECCENTRICITY":0.0001524,"INCLINATION":53.2158,"RA_OF_ASC_NODE":66.6638,"ARG_OF_PERICENTER":99.9319,"MEAN_ANOMALY":260.1845,"EPHEMERIS_TYPE":0,"CLASSIFICATION_TYPE":"U","NORAD_CAT_ID":53410,"ELEMENT_SET_NO":999,"REV_AT_EPOCH":17603,"BSTAR":1.0629e-6,"MEAN_MOTION_DOT":-2.71e-6,"MEAN_MOTION_DDOT":0},{"OBJECT_NAME":"STARLINK-4497","OBJECT_ID":"2022-097Z","EPOCH":"2025-10-10T19:34:36.916320","MEAN_MOTION":15.08837769,"ECCENTRICITY":0.00012436,"INCLINATION":53.2168,"RA_OF_ASC_NODE":66.9292,"ARG_OF_PERICENTER":86.4672,"MEAN_ANOMALY":273.6462,"EPHEMERIS_TYPE":0,"CLASSIFICATION_TYPE":"U","NORAD_CAT_ID":53411,"ELEMENT_SET_NO":999,"REV_AT_EPOCH":17602,"BSTAR":5.8637176e-5,"MEAN_MOTION_DOT":6.45e-6,"MEAN_MOTION_DDOT":0},{"OBJECT_NAME":"STARLINK-4496","OBJECT_ID":"2022-097AA","EPOCH":"2025-10-11T03:05:02.962464","MEAN_MOTION":15.08840848,"ECCENTRICITY":0.00014093,"INCLINATION":53.2174,"RA_OF_ASC_NODE":65.5268,"ARG_OF_PERICENTER":96.0793,"MEAN_ANOMALY":264.036,"EPHEMERIS_TYPE":0,"CLASSIFICATION_TYPE":"U","NORAD_CAT_ID":53412,"ELEMENT_SET_NO":999,"REV_AT_EPOCH":17607,"BSTAR":1.50332e-5,"MEAN_MOTION_DOT":-4.9e-7,"MEAN_MOTION_DDOT":0},{"OBJECT_NAME":"STARLINK-4500","OBJECT_ID":"2022-097AB","EPOCH":"2025-10-11T03:15:39.596544","MEAN_MOTION":15.0880045,"ECCENTRICITY":0.0001361,"INCLINATION":53.2156,"RA_OF_ASC_NODE":65.4907,"ARG_OF_PERICENTER":93.3014,"MEAN_ANOMALY":266.8134,"EPHEMERIS_TYPE":0,"CLASSIFICATION_TYPE":"U","NORAD_CAT_ID":53413,"ELEMENT_SET_NO":999,"REV_AT_EPOCH":17607,"BSTAR":0.00052501261,"MEAN_MOTION_DOT":8.069e-5,"MEAN_MOTION_DDOT":0},{"OBJECT_NAME":"STARLINK-4304","OBJECT_ID":"2022-097AC","EPOCH":"2025-10-11T02:59:44.995776","MEAN_MOTION":15.08844437,"ECCENTRICITY":0.00017425,"INCLINATION":53.2192,"RA_OF_ASC_NODE":65.5418,"ARG_OF_PERICENTER":85.7859,"MEAN_ANOMALY":274.3332,"EPHEMERIS_TYPE":0,"CLASSIFICATION_TYPE":"U","NORAD_CAT_ID":53414,"ELEMENT_SET_NO":999,"REV_AT_EPOCH":17606,"BSTAR":5.9217837e-5,"MEAN_MOTION_DOT":6.55e-6,"MEAN_MOTION_DDOT":0},{"OBJECT_NAME":"STARLINK-4479","OBJECT_ID":"2022-097AD","EPOCH":"2025-10-11T02:54:27.008352","MEAN_MOTION":15.08837755,"ECCENTRICITY":0.00010003,"INCLINATION":53.2152,"RA_OF_ASC_NODE":65.5584,"ARG_OF_PERICENTER":88.2539,"MEAN_ANOMALY":271.8568,"EPHEMERIS_TYPE":0,"CLASSIFICATION_TYPE":"U","NORAD_CAT_ID":53415,"ELEMENT_SET_NO":999,"REV_AT_EPOCH":17604,"BSTAR":1.248774e-5,"MEAN_MOTION_DOT":-8.9e-7,"MEAN_MOTION_DDOT":0},{"OBJECT_NAME":"STARLINK-4480","OBJECT_ID":"2022-097AE","EPOCH":"2025-10-11T02:33:14.849568","MEAN_MOTION":15.08844151,"ECCENTRICITY":0.00015747,"INCLINATION":53.2154,"RA_OF_ASC_NODE":65.5758,"ARG_OF_PERICENTER":88.6052,"MEAN_ANOMALY":271.5121,"EPHEMERIS_TYPE":0,"CLASSIFICATION_TYPE":"U","NORAD_CAT_ID":53416,"ELEMENT_SET_NO":999,"REV_AT_EPOCH":17604,"BSTAR":3.928105e-6,"MEAN_MOTION_DOT":-2.26e-6,"MEAN_MOTION_DDOT":0},{"OBJECT_NAME":"STARLINK-4484","OBJECT_ID":"2022-097AF","EPOCH":"2025-10-10T17:16:50.408832","MEAN_MOTION":15.08837245,"ECCENTRICITY":0.00011656,"INCLINATION":53.2172,"RA_OF_ASC_NODE":67.3596,"ARG_OF_PERICENTER":94.9478,"MEAN_ANOMALY":265.1648,"EPHEMERIS_TYPE":0,"CLASSIFICATION_TYPE":"U","NORAD_CAT_ID":53417,"ELEMENT_SET_NO":999,"REV_AT_EPOCH":17598,"BSTAR":0.00012220734,"MEAN_MOTION_DOT":1.657e-5,"MEAN_MOTION_DDOT":0},{"OBJECT_NAME":"STARLINK-4481","OBJECT_ID":"2022-097AG","EPOCH":"2025-10-11T01:52:06.642624","MEAN_MOTION":15.08838378,"ECCENTRICITY":0.00013195,"INCLINATION":53.2173,"RA_OF_ASC_NODE":55.3166,"ARG_OF_PERICENTER":82.5681,"MEAN_ANOMALY":277.5461,"EPHEMERIS_TYPE":0,"CLASSIFICATION_TYPE":"U","NORAD_CAT_ID":53418,"ELEMENT_SET_NO":999,"REV_AT_EPOCH":17621,"BSTAR":4.2927774e-5,"MEAN_MOTION_DOT":3.95e-6,"MEAN_MOTION_DDOT":0},{"OBJECT_NAME":"STARLINK-4476","OBJECT_ID":"2022-097AH","EPOCH":"2025-10-10T18:46:55.848576","MEAN_MOTION":15.08836042,"ECCENTRICITY":0.00013591,"INCLINATION":53.2163,"RA_OF_ASC_NODE":67.0791,"ARG_OF_PERICENTER":88.2922,"MEAN_ANOMALY":271.8226,"EPHEMERIS_TYPE":0,"CLASSIFICATION_TYPE":"U","NORAD_CAT_ID":53419,"ELEMENT_SET_NO":999,"REV_AT_EPOCH":17599,"BSTAR":2.1781649e-5,"MEAN_MOTION_DOT":5.9e-7,"MEAN_MOTION_DDOT":0},{"OBJECT_NAME":"STARLINK-4552","OBJECT_ID":"2022-097AJ","EPOCH":"2025-10-10T20:06:24.583392","MEAN_MOTION":15.08846912,"ECCENTRICITY":0.00013624,"INCLINATION":53.216,"RA_OF_ASC_NODE":66.8301,"ARG_OF_PERICENTER":81.8782,"MEAN_ANOMALY":278.2364,"EPHEMERIS_TYPE":0,"CLASSIFICATION_TYPE":"U","NORAD_CAT_ID":53420,"ELEMENT_SET_NO":999,"REV_AT_EPOCH":17600,"BSTAR":-6.2957919e-5,"MEAN_MOTION_DOT":-1.29e-5,"MEAN_MOTION_DDOT":0}]
